0 XW-2C
1 40906U 15049H   23018.51219196  .00016245  00000-0  71319-3 0  9998
2 40906  97.4965  25.6163 0011769 335.8531 175.7525 15.21958181405592
0 TEVEL 8
1 50989U 22002F   23018.49670013  .00020988  00000-0  10231-2 0  9997
2 50989  97.4570  87.0989 0009749  41.8042  83.4919 15.18310423 55994
0 XW-2A
1 40903U 15049E   23018.46470873  .00102124  00000-0  88072-3 0  9996
2 40903  97.1470  83.6890 0007421  42.5372  83.0646 15.68910215412762
0 ISS (ZARYA)
1 25544U 98067A   23018.42561734  .00019671  00000-0  34721-3 0  9990
2 25544  51.6453 350.3445 0004455 281.5207 221.7089 15.50366821378568
0 OSCAR 7
1  7530U 74089B   23018.42265109 -.00000019  00000-0  16786-3 0  9998
2  7530 101.9325   4.1783 0012245 351.2888 163.2029 12.53660317204643
0 CSS (TIANHE-1)
1 48274U 21035A   23018.38446897  .00020454  00000-0  24414-3 0  9992
2 48274  41.4763 349.0858 0005580 344.2623 152.0627 15.60536493 98407
0 XW-3 (CAS 9)
1 50466U 21131B   23018.37399510  .00000957  00000-0  32682-3 0  9995
2 50466  98.5646 100.3563 0004106 216.2333 143.8576 14.38632411 55816
0 NEXUS
1 43937U 19003F   23018.36124983  .00044648  00000-0  11875-2 0  9999
2 43937  97.1091  48.9392 0019166 100.9860 259.3543 15.37906461222916
0 ES'HAIL 2
1 43700U 18090A   23018.30181152  .00000161  00000-0  00000+0 0  9994
2 43700   0.0169  60.5673 0001916 290.6164 260.6884  1.00270706 15423
0 DIWATA 2B
1 43678U 18084H   23018.27293173  .00002635  00000-0  26125-3 0  9992
2 43678  97.9961 159.5251 0008728 301.9652  58.0800 14.92668114229893
0 XW-2D
1 40907U 15049J   23018.26943581  .00018775  00000-0  79765-3 0  9996
2 40907  97.4953  25.5914 0011013 330.8481  85.4187 15.23052806405620
0 LILACSAT 2
1 40908U 15049K   23018.26684206  .00008752  00000-0  44014-3 0  9996
2 40908  97.5233  22.0092 0014684 358.6544  57.9132 15.17385566405042
0 XW-2E
1 40909U 15049L   23018.26202637  .00030640  00000-0  10916-2 0  9995
2 40909  97.4622  30.7575 0008884 302.4504 114.0949 15.28838031406161
0 SAUDISAT 1C
1 27607U 02058C   23018.25958816  .00003344  00000-0  47304-3 0  9990
2 27607  64.5565   4.3636 0079570 253.8424 105.3910 14.76619899 80291
0 XW-2B
1 40911U 15049N   23018.18347519  .00018693  00000-0  79778-3 0  9994
2 40911  97.4928  26.0250 0011045 333.5025  95.6832 15.22897570405494
0 AO-92
1 43137U 18004AC  23018.15888308  .00026256  00000-0  76866-3 0  9993
2 43137  97.3480  96.8415 0006410 328.8100  31.2762 15.35196051279204
0 TEVEL 4
1 51063U 22002CH  23018.15815582  .00022591  00000-0  11018-2 0  9992
2 51063  97.4570  86.7351 0009752  42.2569   9.9952 15.18275564 55941
0 TEVEL 7
1 51062U 22002CG  23018.15586505  .00022688  00000-0  11058-2 0  9992
2 51062  97.4564  86.7420 0009844  41.1433  11.2628 15.18298321 55942
0 TEVEL 5
1 50998U 22002Q   23018.15480049  .00023477  00000-0  11226-2 0  9999
2 50998  97.4555  86.9552 0011572  37.5588  15.2493 15.18939708 55965
0 AO-95
1 43770U 18099N   23018.15463624  .00005526  00000-0  47464-3 0  9999
2 43770  97.5961  83.7774 0012680 277.0461  82.9319 14.97784203225130
0 TEVEL 6
1 50999U 22002R   23018.15355201  .00023725  00000-0  11341-2 0  9995
2 50999  97.4558  86.9521 0011439  37.2808  14.7813 15.18948308 55965
0 TEVEL 1
1 51013U 22002AF  23018.14827719  .00021537  00000-0  10493-2 0  9996
2 51013  97.4559  86.6747 0009669  43.5359  14.8963 15.18323396 55943
0 TEVEL 2
1 51069U 22002CP  23018.14406117  .00020556  00000-0  10010-2 0  9997
2 51069  97.4554  86.6850 0009698  42.4706  16.1156 15.18349405 55948
0 TEVEL 3
1 50988U 22002E   23018.14153968  .00022468  00000-0  10936-2 0  9990
2 50988  97.4564  86.7056 0009407  46.9458   7.9859 15.18351085 55943
0 JY1SAT
1 43803U 18099AX  23018.13326689  .00007822  00000-0  65636-3 0  9995
2 43803  97.5964  84.6251 0012058 265.7684  94.2161 14.98565853225208
0 LAPAN A2
1 40931U 15052B   23018.13037197  .00001533  00000-0  12320-3 0  9998
2 40931   5.9934  77.4904 0014139 328.2931  31.6492 14.76983848395130
0 OBJECT C
1 54684U 22167C   23018.12231216  .00016538  00000-0  10315-2 0  9992
2 54684  97.5402 157.4327 0015306 127.3374 338.5675 15.09498975  6007
0 EYESAT A
1 22825U 93061C   23018.08174335  .00000227  00000-0  10527-3 0  9992
2 22825  98.8635  58.3930 0009110 141.0067 219.1773 14.30231392529103
0 ZHUHAI-1 01
1 42761U 17034D   23018.06604318  .00011104  00000-0  60876-3 0  9994
2 42761  43.0154 226.8114 0011140 219.9614 277.0174 15.14158585308868
0 XW-2F
1 40910U 15049M   23018.06587579  .00030414  00000-0  11025-2 0  9997
2 40910  97.4708  29.7530 0009978 305.3563  89.9182 15.28261618405898
0 ZHUHAI-1 02
1 42759U 17034B   23018.04177763  .00010316  00000-0  56814-3 0  9999
2 42759  43.0154 228.3205 0010821 217.0029 273.6959 15.14057395308856
0 JAS 2
1 24278U 96046B   23017.94147018  .00000047  00000-0  80130-4 0  9992
2 24278  98.5156  17.0741 0351295  86.7233 277.4025 13.53128441304863
0 FUNCUBE 1
1 39444U 13066AE  23017.74400429  .00007710  00000-0  89111-3 0  9991
2 39444  97.6524 347.4821 0056458  49.7616 310.8518 14.84674518493302
0 NAYIF 1
1 42017U 17008BX  23017.65199529  .00060538  00000-0  12708-2 0  9991
2 42017  97.2417  86.5725 0003227 180.7634 179.3611 15.45156586330013
0 UVSQ-SAT
1 47438U 21006AB  23017.58508251  .00017627  00000-0  84379-3 0  9999
2 47438  97.4102  77.2497 0009770 248.7189 111.3003 15.18978953109745
0 AO-91
1 43017U 17073E   23017.50525339  .00009696  00000-0  70737-3 0  9995
2 43017  97.6516 267.8717 0241127 205.4563 153.4617 14.83441909278828
0 BREEZE-KM R/B
1 44909U 19096E   23017.48812015  .00000006  00000-0 -21969-4 0  9991
2 44909  82.5204  88.0875 0217634 179.0400 181.1163 12.79717642142889
0 MT-CUBE-2
1 53106U 22080B   22354.08419093 -.00000003  00000-0  00000+0 0  9990
2 53106  70.1702  21.9397 0008914 226.9685 182.2049  6.42557326 10248
